60182,ALOS-4 (DAICHI-4),2024,97.33,-1.0,+,97.92,Active,0,LEO,Japan,Japan,Unknown,Unknown,Unknown,1 60182U 24123A   25158.87832032  .00001441  00000+0  19989-3 0  9991,2 60182  97.9208 256.4192 0001747  96.3295 263.8116 14.79464642 50533,14.79464642,0.0001747,LEO
60452,LEGION 3,2024,95.0,-1.0,+,45.0,Active,0,LEO,USA,USA,Unknown,Unknown,Unknown,1 60452U 24146A   25158.67383136  .00003705  00000+0  20345-3 0  9993,2 60452  45.0010 238.4640 0023439 232.1237 127.7521 15.15754067 45192,15.15754067,0.0023439,LEO
60453,LEGION 4,2024,95.0,-1.0,+,45.04,Active,0,LEO,USA,USA,Unknown,Unknown,Unknown,1 60453U 24146B   25158.87125614  .00004466  00000+0  24360-3 0  9997,2 60453  45.0391 328.4959 0011471 266.3428  93.6139 15.15735825 44075,15.15735825,0.0011471,LEO
60989,SENTINEL-2C,2024,100.64,-1.0,+,98.57,Active,0,LEO,French Guiana,ESA,Unknown,Unknown,Unknown,1 60989U 24157A   25158.69726090  .00000094  00000+0  52521-4 0  9992,2 60989  98.5687 233.9343 0001194  96.4069 263.7250 14.30818935 39439,14.30818935,0.0001194,LEO
63772,BIOMASS,2025,98.12,-1.0,+,98.08,Active,0,LEO,French Guiana,ESA,Unknown,Unknown,Unknown,1 63772U 25090A   25158.50589174  .00001050  00000+0  19355-3 0  9992,2 63772  98.0757 346.1844 0001302  88.9338 271.2015 14.67543892  5730,14.67543892,0.0001302,LEO
