[
  {
    "OBJECT_NAME": "ALOS-4 (DAICHI-4)",
    "OBJECT_ID": "2024-123A",
    "EPOCH": "2025-06-07T21:04:46.875648",
    "MEAN_MOTION": 14.79464642,
    "ECCENTRICITY": 0.0001747,
    "INCLINATION": 97.9208,
    "RA_OF_ASC_NODE": 256.4192,
    "ARG_OF_PERICENTER": 96.3295,
    "MEAN_ANOMALY": 263.8116,
    "EPHEMERIS_TYPE": 0,
    "CLASSIFICATION_TYPE": "U",
    "NORAD_CAT_ID": 60182,
    "ELEMENT_SET_NO": 999,
    "REV_AT_EPOCH": 5053,
    "BSTAR": 0.00019989,
    "MEAN_MOTION_DOT": 1.441e-05,
    "MEAN_MOTION_DDOT": 0
  },
  {
    "OBJECT_NAME": "LEGION 3",
    "OBJECT_ID": "2024-146A",
    "EPOCH": "2025-06-07T16:10:19.029504",
    "MEAN_MOTION": 15.15754067,
    "ECCENTRICITY": 0.0023439,
    "INCLINATION": 45.001,
    "RA_OF_ASC_NODE": 238.464,
    "ARG_OF_PERICENTER": 232.1237,
    "MEAN_ANOMALY": 127.7521,
    "EPHEMERIS_TYPE": 0,
    "CLASSIFICATION_TYPE": "U",
    "NORAD_CAT_ID": 60452,
    "ELEMENT_SET_NO": 999,
    "REV_AT_EPOCH": 4519,
    "BSTAR": 0.00020345,
    "MEAN_MOTION_DOT": 3.705e-05,
    "MEAN_MOTION_DDOT": 0
  },
  {
    "OBJECT_NAME": "LEGION 4",
    "OBJECT_ID": "2024-146B",
    "EPOCH": "2025-06-07T20:54:36.530496",
    "MEAN_MOTION": 15.15735825,
    "ECCENTRICITY": 0.0011471,
    "INCLINATION": 45.0391,
    "RA_OF_ASC_NODE": 328.4959,
    "ARG_OF_PERICENTER": 266.3428,
    "MEAN_ANOMALY": 93.6139,
    "EPHEMERIS_TYPE": 0,
    "CLASSIFICATION_TYPE": "U",
    "NORAD_CAT_ID": 60453,
    "ELEMENT_SET_NO": 999,
    "REV_AT_EPOCH": 4407,
    "BSTAR": 0.0002436,
    "MEAN_MOTION_DOT": 4.466e-05,
    "MEAN_MOTION_DDOT": 0
  },
  {
    "OBJECT_NAME": "SENTINEL-2C",
    "OBJECT_ID": "2024-157A",
    "EPOCH": "2025-06-07T16:44:03.341760",
    "MEAN_MOTION": 14.30818935,
    "ECCENTRICITY": 0.0001194,
    "INCLINATION": 98.5687,
    "RA_OF_ASC_NODE": 233.9343,
    "ARG_OF_PERICENTER": 96.4069,
    "MEAN_ANOMALY": 263.725,
    "EPHEMERIS_TYPE": 0,
    "CLASSIFICATION_TYPE": "U",
    "NORAD_CAT_ID": 60989,
    "ELEMENT_SET_NO": 999,
    "REV_AT_EPOCH": 3943,
    "BSTAR": 5.2521e-05,
    "MEAN_MOTION_DOT": 9.4e-07,
    "MEAN_MOTION_DDOT": 0
  },
  {
    "OBJECT_NAME": "BIOMASS",
    "OBJECT_ID": "2025-090A",
    "EPOCH": "2025-06-07T12:08:29.046336",
    "MEAN_MOTION": 14.67543892,
    "ECCENTRICITY": 0.0001302,
    "INCLINATION": 98.0757,
    "RA_OF_ASC_NODE": 346.1844,
    "ARG_OF_PERICENTER": 88.9338,
    "MEAN_ANOMALY": 271.2015,
    "EPHEMERIS_TYPE": 0,
    "CLASSIFICATION_TYPE": "U",
    "NORAD_CAT_ID": 63772,
    "ELEMENT_SET_NO": 999,
    "REV_AT_EPOCH": 573,
    "BSTAR": 0.00019355,
    "MEAN_MOTION_DOT": 1.05e-05,
    "MEAN_MOTION_DDOT": 0
  }
]